
# Worst residual: 120.11 km
# MJD 60807.000000 (2025 May 12  0:00)
ZTF1012 = A11nsbi = A11njyE = A11m53U
1 79879U 25000ZZF 25132.49919926  .00000000  00000-0  00000-0 0 27034
2 79879 005.1724 092.8192 7012464 336.1481 081.7436 01.02678383    09

# Worst residual: 111.07 km
# MJD 60808.000000 (2025 May 13  0:00)
ZTF1012 = A11nsbi = A11njyE = A11m53U
1 79879U 25000ZZF 25133.49919926  .00000000  00000-0  00000-0 0 27035
2 79879 005.3522 091.9949 7029209 337.4547 090.5813 01.02646163    07

# Worst residual: 125.74 km
# MJD 60809.000000 (2025 May 14  0:00)
ZTF1012 = A11nsbi = A11njyE = A11m53U
1 79879U 25000ZZF 25134.49919926  .00000000  00000-0  00000-0 0 27036
2 79879 005.5300 091.0966 7044131 338.8398 099.4185 01.02620795    06

# Worst residual: 124.40 km
# MJD 60810.000000 (2025 May 15  0:00)
ZTF1012 = A11nsbi = A11njyE = A11m53U
1 79879U 25000ZZF 25135.49919926  .00000000  00000-0  00000-0 0 27037
2 79879 005.7227 090.2405 7059663 340.1806 108.2492 01.02598310    08

# Worst residual: 118.69 km
# MJD 60811.000000 (2025 May 16  0:00)
ZTF1012 = A11nsbi = A11njyE = A11m53U
1 79879U 25000ZZF 25136.49919926  .00000000  00000-0  00000-0 0 27038
2 79879 005.8993 089.6198 7073799 341.2780 117.0739 01.02576150    09

# Worst residual: 125.47 km
# MJD 60812.000000 (2025 May 17  0:00)
ZTF1012 = A11nsbi = A11njyE = A11m53U
1 79879U 25000ZZF 25137.49919926  .00000000  00000-0  00000-0 0 27039
2 79879 006.0882 089.0144 7086460 342.3734 125.8984 01.02557873    04

# Worst residual: 119.39 km
# MJD 60813.000000 (2025 May 18  0:00)
ZTF1012 = A11nsbi = A11njyE = A11m53U
1 79879U 25000ZZF 25138.49919926  .00000000  00000-0  00000-0 0 27030
2 79879 006.2713 088.3524 7099137 343.5115 134.7201 01.02531098    06

# Worst residual: 112.93 km
# MJD 60814.000000 (2025 May 19  0:00)
ZTF1012 = A11nsbi = A11njyE = A11m53U
1 79879U 25000ZZF 25139.49919926  .00000000  00000-0  00000-0 0 27031
2 79879 006.4745 087.7620 7110023 344.5728 143.5653 01.02517584    05

# Worst residual: 92.44 km
# MJD 60815.000000 (2025 May 20  0:00)
ZTF1012 = A11nsbi = A11njyE = A11m53U
1 79879U 25000ZZF 25140.49919926  .00000000  00000-0  00000-0 0 27033
2 79879 006.6710 087.2382 7121737 345.5676 152.3988 01.02505594    03

# Worst residual: 72.42 km
# MJD 60816.000000 (2025 May 21  0:00)
ZTF1012 = A11nsbi = A11njyE = A11m53U
1 79879U 25000ZZF 25141.49919926  .00000000  00000-0  00000-0 0 27034
2 79879 006.8696 086.7491 7132412 346.5294 161.2230 01.02494028    00

# Worst residual: 52.02 km
# MJD 60817.000000 (2025 May 22  0:00)
ZTF1012 = A11nsbi = A11njyE = A11m53U
1 79879U 25000ZZF 25142.49919926  .00000000  00000-0  00000-0 0 27035
2 79879 007.0738 086.2919 7141998 347.4570 170.0497 01.02480805    07

# Worst residual: 36.33 km
# MJD 60818.000000 (2025 May 23  0:00)
ZTF1012 = A11nsbi = A11njyE = A11m53U
1 79879U 25000ZZF 25143.49919926  .00000000  00000-0  00000-0 0 27036
2 79879 007.2816 085.8751 7150838 348.3405 178.8832 01.02467111    09

# Worst residual: 35.88 km
# MJD 60819.000000 (2025 May 24  0:00)
ZTF1012 = A11nsbi = A11njyE = A11m53U
1 79879U 25000ZZF 25144.49919926  .00000000  00000-0  00000-0 0 27037
2 79879 007.4841 085.5074 7159794 349.1707 187.7245 01.02461098    03

# Worst residual: 37.74 km
# MJD 60820.000000 (2025 May 25  0:00)
ZTF1012 = A11nsbi = A11njyE = A11m53U
1 79879U 25000ZZF 25145.49919926  .00000000  00000-0  00000-0 0 27038
2 79879 007.6824 085.1769 7169042 349.9676 196.5630 01.02458401    03

# Worst residual: 37.93 km
# MJD 60821.000000 (2025 May 26  0:00)
ZTF1012 = A11nsbi = A11njyE = A11m53U
1 79879U 25000ZZF 25146.49919926  .00000000  00000-0  00000-0 0 27039
2 79879 007.8808 084.8676 7178234 350.7431 205.4028 01.02466549    05

# Worst residual: 53.77 km
# MJD 60822.000000 (2025 May 27  0:00)
ZTF1012 = A11nsbi = A11njyE = A11m53U
1 79879U 25000ZZF 25147.49919926  .00000000  00000-0  00000-0 0 27030
2 79879 008.0833 084.5733 7187879 351.5037 214.2467 01.02484665    07

# Worst residual: 71.72 km
# MJD 60823.000000 (2025 May 28  0:00)
ZTF1012 = A11nsbi = A11njyE = A11m53U
1 79879U 25000ZZF 25148.49919926  .00000000  00000-0  00000-0 0 27334
2 79879 008.2870 084.2928 7207021 352.1087 223.8572 01.02550269    04

# Worst residual: 79.72 km
# MJD 60824.000000 (2025 May 29  0:00)
ZTF1012 = A11nsbi = A11njyE = A11m53U
1 79879U 25000ZZF 25149.49919926  .00000000  00000-0  00000-0 0 27335
2 79879 008.4904 084.0438 7214099 352.7952 232.8440 01.02570049    00

# Worst residual: 82.53 km
# MJD 60825.000000 (2025 May 30  0:00)
ZTF1012 = A11nsbi = A11njyE = A11m53U
1 79879U 25000ZZF 25150.49919926  .00000000  00000-0  00000-0 0 27337
2 79879 008.6937 083.8457 7221078 353.4225 241.8370 01.02584312    02

# Worst residual: 96.79 km
# MJD 60826.000000 (2025 May 31  0:00)
ZTF1012 = A11nsbi = A11njyE = A11m53U
1 79879U 25000ZZF 25151.49919926  .00000000  00000-0  00000-0 0 27338
2 79879 008.9040 083.6403 7225600 354.0635 250.8324 01.02594669    01

# Worst residual: 113.59 km
# MJD 60827.000000 (2025 Jun  1  0:00)
ZTF1012 = A11nsbi = A11njyE = A11m53U
1 79879U 25000ZZF 25152.49919926  .00000000  00000-0  00000-0 0 27339
2 79879 009.1125 083.4602 7230934 354.6741 259.8422 01.02617700    07
